COSMOS 2058             
1 20465U 90010A   26183.81933822  .00002916  00000+0  16760-3 0  9993
2 20465  82.4691 293.9396 0008399 300.7433  59.2969 15.12107402959634
SL-14 R/B               
1 20466U 90010B   26183.88204604  .00000421  00000+0  48094-4 0  9995
2 20466  82.5024 159.2052 0018210 281.3039  78.6129 14.83656611945566
SL-14 R/B               
1 20511U 90018B   26183.80826268  .00000479  00000+0  56907-4 0  9997
2 20511  82.5221 115.5078 0017661  74.6455 285.6709 14.82227222939639
HST                     
1 20580U 90037B   26183.72415951  .00007907  00000+0  24931-3 0  9992
2 20580  28.4736 334.3758 0001625 336.7387  23.3136 15.30934799790959
SL-16 R/B               
1 20625U 90046B   26183.85368676 -.00000225  00000+0 -91528-4 0  9992
2 20625  70.9991  56.0463 0012520 136.1960 224.0158 14.15024191864684
COSMOS 2084             
1 20663U 90055A   26183.73014206  .00002694  00000+0  19658-3 0  9991
2 20663  62.7914 303.0379 0006661 304.3354  55.7116 15.06182831953641
SL-6 R/B(2)             
1 20666U 90055D   26183.60710347  .00001719  00000+0  13597-3 0  9992
2 20666  62.7804 222.9023 0043142   7.2205 352.9506 15.04050645955479
SL-8 R/B                
1 20775U 90078B   26183.88063969  .00024892  00000+0  70454-3 0  9991
2 20775  82.9029 147.4567 0346222 345.4383  13.7047 14.93121807826460
SL-8 R/B                
1 21088U 91006B   26183.74194167  .00000094  00000+0  78423-4 0  9994
2 21088  82.9421  84.4624 0023848  73.5424 294.3875 13.77507515779917
OKEAN-3                 
1 21397U 91039A   26183.82579495  .00002527  00000+0  17412-3 0  9996
2 21397  82.5146 225.2165 0012265 300.1844  59.8168 15.05393407882359
COSMOS 2151             
1 21422U 91042A   26183.86478178  .00001544  00000+0  12029-3 0  9996
2 21422  82.4972 332.5499 0013079  36.0420 324.1683 15.00483512880467
SL-14 R/B               
1 21423U 91042B   26183.81809711  .00000430  00000+0  51358-4 0  9995
2 21423  82.4935 112.2382 0015929 218.7271 141.2802 14.81912373870123
ERS-1                   
1 21574U 91050A   26183.66496898  .00000403  00000+0  14318-3 0  9996
2 21574  98.7793 204.7410 0031185 219.4827 140.4087 14.39527701832278
ARIANE 40 R/B           
1 21610U 91050F   26183.85910342  .00000295  00000+0  10058-3 0  9999
2 21610  98.1867 231.6650 0004457  87.8839 272.2863 14.42966137835602
INTERCOSMOS 25          
1 21819U 91086A   26183.54655799  .00000800  00000+0  15824-3 0  9995
2 21819  82.6030 240.5154 1484039 229.2268 117.0478 12.12220272510604
SL-8 R/B                
1 21876U 92008B   26183.78251360  .00000148  00000+0  13619-3 0  9990
2 21876  82.9260 182.1918 0034892 170.7149   2.3722 13.75981055725248
SL-8 R/B                
1 21938U 92020B   26183.61078595  .00000052  00000+0  38698-4 0  9991
2 21938  82.9297  68.4009 0028666 339.7378  34.5129 13.75550105716939
USA 81                  
1 21949U 92023A   26183.64320427  .00000191  00000+0  63350-4 0  9990
2 21949  85.0063  65.0864 0002471  71.4644 288.6817 14.32402314111241
COSMOS 2219             
1 22219U 92076A   26183.82356382  .00000128  00000+0  91866-4 0  9991
2 22219  71.0608 137.3844 0017459  17.5734 342.5989 14.14109183734650
SL-16 R/B               
1 22220U 92076B   26183.79334601 -.00000166  00000+0 -58521-4 0  9994
2 22220  71.0013 305.9057 0015060 278.1586 244.3289 14.16874363738137
COSMOS 2221             
1 22236U 92080A   26183.45044647  .00001762  00000+0  15227-3 0  9993
2 22236  82.5034 169.1406 0014705 160.1512 200.0285 14.96574411797955
SL-16 R/B               
1 22285U 92093B   26183.86040584  .00000270  00000+0  16273-3 0  9997
2 22285  71.0216 122.4888 0003072 159.1821 200.9428 14.15464818729454
COSMOS 2228             
1 22286U 92094A   26183.85594209  .00002281  00000+0  19235-3 0  9991
2 22286  82.5185 127.0347 0015963 275.0418  84.8983 14.97643640793290
SL-16 R/B               
1 22566U 93016B   26183.84209746 -.00000270  00000+0 -11403-3 0  9992
2 22566  71.0088 333.3258 0009231 160.0637 200.0848 14.15313702718467
COSMOS 2242             
1 22626U 93024A   26183.42150521  .00002009  00000+0  17234-3 0  9996
2 22626  82.5188 156.9673 0014400 280.6682  79.2919 14.96951798797559
SL-16 R/B               
1 22803U 93059B   26183.80584393  .00000250  00000+0  14739-3 0  9994
2 22803  70.9900 128.3670 0015988  28.2579 331.9409 14.17249902695843
ARIANE 40 R/B           
1 22830U 93061H   26183.63739200  .00000246  00000+0  10590-3 0  9993
2 22830  98.4813 250.1732 0009636 307.5881  52.4428 14.32914414710563
COSMOS 2278             
1 23087U 94023A   26183.73518180 -.00000212  00000+0 -85837-4 0  9992
2 23087  71.0547 294.3953 0010245 224.2861 135.7443 14.14396562661076
SL-16 R/B               
1 23088U 94023B   26183.73000916 -.00000222  00000+0 -90133-4 0  9992
2 23088  70.9979 189.2900 0001756 168.9730 191.1432 14.15026270662368
SL-16 R/B               
1 23343U 94074B   26183.85888941  .00000517  00000+0  75710-4 0  9996
2 23343  97.6985 209.9265 0006077 193.3714 340.0191 14.79516128704274
